FENGYUN 1C DEB          
1 31332U 99025BQL 17345.08563324  .00000154  00000-0  12188-3 0  9991
2 31332  98.9518  26.1864 0052729 322.4188  99.6212 14.05047232548884
